UWE-3                   
1 39446U 13066AG  26117.14208317  .00004289  00000+0  37227-3 0  9991
2 39446  97.8655  72.9028 0050629 128.8388 231.7369 14.96594807669944
UNISAT-6                
1 40012U 14033C   26117.29849677  .00004110  00000+0  44656-3 0  9990
2 40012  97.7813 270.9352 0044191 235.0838 124.6223 14.87938938638591
DUCHIFAT-1              
1 40021U 14033M   26117.08889656  .00070643  00000+0  10062-2 0  9995
2 40021  98.0538 169.4491 0004294 231.1866 128.9004 15.56089814647785
QB50P1                  
1 40025U 14033R   26116.99294189  .00009377  00000+0  47164-3 0  9999
2 40025  98.0988 124.5794 0010100  50.0262 310.1856 15.17436151645265
LILACSAT-2              
1 40908U 15049K   26117.29011584  .00019936  00000+0  35967-3 0  9997
2 40908  97.4730 152.2440 0008810  83.2205 277.0048 15.49751163587862
FOX-1A (AO-85)          
1 40967U 15058D   26117.30347638  .00004297  00000+0  38847-3 0  9990
2 40967  64.7748  77.0739 0128577  76.5294 285.0109 14.90650113105988
CAS-2T & KS-1Q          
1 41847U 16066G   26117.19259589  .00000693  00000+0  10772-3 0  9995
2 41847  98.3830 193.5038 0340950 284.3492  72.0080 14.44568920497436
RADFXSAT (FOX-1B)       
1 43017U 17073E   26117.19198040  .00011858  00000+0  52323-3 0  9992
2 43017  97.4782 345.4710 0154044 144.1676 217.0008 15.11775517457683
DIWATA-2B               
1 43678U 18084H   26117.28275225  .00001766  00000+0  14630-3 0  9995
2 43678  98.1071 311.3244 0013109 344.8247  15.2580 15.00193996408589
ES'HAIL 2               
1 43700U 18090A   26116.57043110  .00000132  00000+0  00000+0 0  9993
2 43700   0.0402  76.1329 0001354 345.0735  24.5116  1.00274610 27155
FOX-1CLIFF (AO-95)      
1 43770U 18099N   26117.13202207  .00012395  00000+0  49000-3 0  9997
2 43770  97.4424 177.6013 0009745 159.1293 201.0345 15.25582694405431
ITASAT                  
1 43786U 18099AE  26117.09074405  .00007859  00000+0  38461-3 0  9994
2 43786  97.4080 169.6362 0013422 164.4283 195.7367 15.18381056405152
JY1SAT (JO-97)          
1 43803U 18099AX  26117.11065707  .00018766  00000+0  60846-3 0  9993
2 43803  97.4172 179.8232 0007438  96.6634 263.5454 15.32008753405808
UWE-4                   
1 43880U 18111E   26117.29230419  .00037161  00000+0  83983-3 0  9993
2 43880  97.5856  43.4663 0009977 134.8716 225.3343 15.43036958402926
TIANYAN 01              
1 44881U 19093C   26117.28948275  .00001181  00000+0  13963-3 0  9994
2 44881  97.7543 190.7604 0012123 253.0993 106.8894 14.86434458343855
RS-44 & BREEZE-KM R/B   
1 44909U 19096E   26117.18731030  .00000001  00000+0 -34248-4 0  9997
2 44909  82.5260  13.5957 0216363 263.6274  94.0148 12.79747956295821
