[{"OBJECT_NAME":"UWE-3","OBJECT_ID":"2013-066AG","EPOCH":"2026-04-27T03:24:35.985888","MEAN_MOTION":14.96594807,"ECCENTRICITY":0.00506292,"INCLINATION":97.8655,"RA_OF_ASC_NODE":72.9028,"ARG_OF_PERICENTER":128.8388,"MEAN_ANOMALY":231.7369,"EPHEMERIS_TYPE":0,"CLASSIFICATION_TYPE":"U","NORAD_CAT_ID":39446,"ELEMENT_SET_NO":999,"REV_AT_EPOCH":66994,"BSTAR":0.00037226643,"MEAN_MOTION_DOT":4.289e-5,"MEAN_MOTION_DDOT":0},{"OBJECT_NAME":"UNISAT-6","OBJECT_ID":"2014-033C","EPOCH":"2026-04-27T07:09:50.120928","MEAN_MOTION":14.87938938,"ECCENTRICITY":0.00441919,"INCLINATION":97.7813,"RA_OF_ASC_NODE":270.9352,"ARG_OF_PERICENTER":235.0838,"MEAN_ANOMALY":124.6223,"EPHEMERIS_TYPE":0,"CLASSIFICATION_TYPE":"U","NORAD_CAT_ID":40012,"ELEMENT_SET_NO":999,"REV_AT_EPOCH":63859,"BSTAR":0.00044655915,"MEAN_MOTION_DOT":4.11e-5,"MEAN_MOTION_DDOT":0},{"OBJECT_NAME":"DUCHIFAT-1","OBJECT_ID":"2014-033M","EPOCH":"2026-04-27T02:08:00.662784","MEAN_MOTION":15.56089814,"ECCENTRICITY":0.00042947,"INCLINATION":98.0538,"RA_OF_ASC_NODE":169.4491,"ARG_OF_PERICENTER":231.1866,"MEAN_ANOMALY":128.9004,"EPHEMERIS_TYPE":0,"CLASSIFICATION_TYPE":"U","NORAD_CAT_ID":40021,"ELEMENT_SET_NO":999,"REV_AT_EPOCH":64778,"BSTAR":0.0010062486,"MEAN_MOTION_DOT":0.00070643,"MEAN_MOTION_DDOT":0},{"OBJECT_NAME":"QB50P1","OBJECT_ID":"2014-033R","EPOCH":"2026-04-26T23:49:50.179296","MEAN_MOTION":15.17436151,"ECCENTRICITY":0.00101004,"INCLINATION":98.0988,"RA_OF_ASC_NODE":124.5794,"ARG_OF_PERICENTER":50.0262,"MEAN_ANOMALY":310.1856,"EPHEMERIS_TYPE":0,"CLASSIFICATION_TYPE":"U","NORAD_CAT_ID":40025,"ELEMENT_SET_NO":999,"REV_AT_EPOCH":64526,"BSTAR":0.00047163786,"MEAN_MOTION_DOT":9.377e-5,"MEAN_MOTION_DDOT":0},{"OBJECT_NAME":"LILACSAT-2","OBJECT_ID":"2015-049K","EPOCH":"2026-04-27T06:57:46.008576","MEAN_MOTION":15.49751163,"ECCENTRICITY":0.00088109,"INCLINATION":97.473,"RA_OF_ASC_NODE":152.244,"ARG_OF_PERICENTER":83.2205,"MEAN_ANOMALY":277.0048,"EPHEMERIS_TYPE":0,"CLASSIFICATION_TYPE":"U","NORAD_CAT_ID":40908,"ELEMENT_SET_NO":999,"REV_AT_EPOCH":58786,"BSTAR":0.00035966963,"MEAN_MOTION_DOT":0.00019936,"MEAN_MOTION_DDOT":0},{"OBJECT_NAME":"FOX-1A (AO-85)","OBJECT_ID":"2015-058D","EPOCH":"2026-04-27T07:17:00.359232","MEAN_MOTION":14.90650113,"ECCENTRICITY":0.01285772,"INCLINATION":64.7748,"RA_OF_ASC_NODE":77.0739,"ARG_OF_PERICENTER":76.5294,"MEAN_ANOMALY":285.0109,"EPHEMERIS_TYPE":0,"CLASSIFICATION_TYPE":"U","NORAD_CAT_ID":40967,"ELEMENT_SET_NO":999,"REV_AT_EPOCH":10598,"BSTAR":0.00038847226,"MEAN_MOTION_DOT":4.297e-5,"MEAN_MOTION_DDOT":0},{"OBJECT_NAME":"CAS-2T & KS-1Q","OBJECT_ID":"2016-066G","EPOCH":"2026-04-27T04:37:20.284896","MEAN_MOTION":14.4456892,"ECCENTRICITY":0.03409504,"INCLINATION":98.383,"RA_OF_ASC_NODE":193.5038,"ARG_OF_PERICENTER":284.3492,"MEAN_ANOMALY":72.008,"EPHEMERIS_TYPE":0,"CLASSIFICATION_TYPE":"U","NORAD_CAT_ID":41847,"ELEMENT_SET_NO":999,"REV_AT_EPOCH":49743,"BSTAR":0.0001077194,"MEAN_MOTION_DOT":6.93e-6,"MEAN_MOTION_DDOT":0},{"OBJECT_NAME":"RADFXSAT (FOX-1B)","OBJECT_ID":"2017-073E","EPOCH":"2026-04-27T04:36:27.106560","MEAN_MOTION":15.11775517,"ECCENTRICITY":0.01540442,"INCLINATION":97.4782,"RA_OF_ASC_NODE":345.471,"ARG_OF_PERICENTER":144.1676,"MEAN_ANOMALY":217.0008,"EPHEMERIS_TYPE":0,"CLASSIFICATION_TYPE":"U","NORAD_CAT_ID":43017,"ELEMENT_SET_NO":999,"REV_AT_EPOCH":45768,"BSTAR":0.00052323192,"MEAN_MOTION_DOT":0.00011858,"MEAN_MOTION_DDOT":0},{"OBJECT_NAME":"DIWATA-2B","OBJECT_ID":"2018-084H","EPOCH":"2026-04-27T06:47:09.794400","MEAN_MOTION":15.00193996,"ECCENTRICITY":0.00131099,"INCLINATION":98.1071,"RA_OF_ASC_NODE":311.3244,"ARG_OF_PERICENTER":344.8247,"MEAN_ANOMALY":15.258,"EPHEMERIS_TYPE":0,"CLASSIFICATION_TYPE":"U","NORAD_CAT_ID":43678,"ELEMENT_SET_NO":999,"REV_AT_EPOCH":40858,"BSTAR":0.00014630493,"MEAN_MOTION_DOT":1.766e-5,"MEAN_MOTION_DDOT":0},{"OBJECT_NAME":"ES'HAIL 2","OBJECT_ID":"2018-090A","EPOCH":"2026-04-26T13:41:25.247040","MEAN_MOTION":1.0027461,"ECCENTRICITY":0.0001354,"INCLINATION":0.0402,"RA_OF_ASC_NODE":76.1329,"ARG_OF_PERICENTER":345.0735,"MEAN_ANOMALY":24.5116,"EPHEMERIS_TYPE":0,"CLASSIFICATION_TYPE":"U","NORAD_CAT_ID":43700,"ELEMENT_SET_NO":999,"REV_AT_EPOCH":2715,"BSTAR":0,"MEAN_MOTION_DOT":1.32e-6,"MEAN_MOTION_DDOT":0},{"OBJECT_NAME":"FOX-1CLIFF (AO-95)","OBJECT_ID":"2018-099N","EPOCH":"2026-04-27T03:10:06.706848","MEAN_MOTION":15.25582694,"ECCENTRICITY":0.00097454,"INCLINATION":97.4424,"RA_OF_ASC_NODE":177.6013,"ARG_OF_PERICENTER":159.1293,"MEAN_ANOMALY":201.0345,"EPHEMERIS_TYPE":0,"CLASSIFICATION_TYPE":"U","NORAD_CAT_ID":43770,"ELEMENT_SET_NO":999,"REV_AT_EPOCH":40543,"BSTAR":0.00049000165,"MEAN_MOTION_DOT":0.00012395,"MEAN_MOTION_DDOT":0},{"OBJECT_NAME":"ITASAT","OBJECT_ID":"2018-099AE","EPOCH":"2026-04-27T02:10:40.285920","MEAN_MOTION":15.18381056,"ECCENTRICITY":0.00134228,"INCLINATION":97.408,"RA_OF_ASC_NODE":169.6362,"ARG_OF_PERICENTER":164.4283,"MEAN_ANOMALY":195.7367,"EPHEMERIS_TYPE":0,"CLASSIFICATION_TYPE":"U","NORAD_CAT_ID":43786,"ELEMENT_SET_NO":999,"REV_AT_EPOCH":40515,"BSTAR":0.00038460965,"MEAN_MOTION_DOT":7.859e-5,"MEAN_MOTION_DDOT":0},{"OBJECT_NAME":"JY1SAT (JO-97)","OBJECT_ID":"2018-099AX","EPOCH":"2026-04-27T02:39:20.770848","MEAN_MOTION":15.32008753,"ECCENTRICITY":0.00074384,"INCLINATION":97.4172,"RA_OF_ASC_NODE":179.8232,"ARG_OF_PERICENTER":96.6634,"MEAN_ANOMALY":263.5454,"EPHEMERIS_TYPE":0,"CLASSIFICATION_TYPE":"U","NORAD_CAT_ID":43803,"ELEMENT_SET_NO":999,"REV_AT_EPOCH":40580,"BSTAR":0.00060846096,"MEAN_MOTION_DOT":0.00018766,"MEAN_MOTION_DDOT":0},{"OBJECT_NAME":"UWE-4","OBJECT_ID":"2018-111E","EPOCH":"2026-04-27T07:00:55.082016","MEAN_MOTION":15.43036958,"ECCENTRICITY":0.00099772,"INCLINATION":97.5856,"RA_OF_ASC_NODE":43.4663,"ARG_OF_PERICENTER":134.8716,"MEAN_ANOMALY":225.3343,"EPHEMERIS_TYPE":0,"CLASSIFICATION_TYPE":"U","NORAD_CAT_ID":43880,"ELEMENT_SET_NO":999,"REV_AT_EPOCH":40292,"BSTAR":0.00083983378,"MEAN_MOTION_DOT":0.00037161,"MEAN_MOTION_DDOT":0},{"OBJECT_NAME":"TIANYAN 01","OBJECT_ID":"2019-093C","EPOCH":"2026-04-27T06:56:51.309600","MEAN_MOTION":14.86434458,"ECCENTRICITY":0.00121231,"INCLINATION":97.7543,"RA_OF_ASC_NODE":190.7604,"ARG_OF_PERICENTER":253.0993,"MEAN_ANOMALY":106.8894,"EPHEMERIS_TYPE":0,"CLASSIFICATION_TYPE":"U","NORAD_CAT_ID":44881,"ELEMENT_SET_NO":999,"REV_AT_EPOCH":34385,"BSTAR":0.00013963088,"MEAN_MOTION_DOT":1.181e-5,"MEAN_MOTION_DDOT":0},{"OBJECT_NAME":"RS-44 & BREEZE-KM R/B","OBJECT_ID":"2019-096E","EPOCH":"2026-04-27T04:29:43.609920","MEAN_MOTION":12.79747956,"ECCENTRICITY":0.02163634,"INCLINATION":82.526,"RA_OF_ASC_NODE":13.5957,"ARG_OF_PERICENTER":263.6274,"MEAN_ANOMALY":94.0148,"EPHEMERIS_TYPE":0,"CLASSIFICATION_TYPE":"U","NORAD_CAT_ID":44909,"ELEMENT_SET_NO":999,"REV_AT_EPOCH":29582,"BSTAR":-3.4248241e-5,"MEAN_MOTION_DOT":1.0e-8,"MEAN_MOTION_DDOT":0}]
